*******************************************************************************
JPL/HORIZONS             2961 Katsurahama (1982 XA)        2023-Sep-04 11:20:56
Rec #:    2961 (+COV) Soln.date: 2023-Aug-23_04:26:09   # obs: 3374 (1941-2023)
 
IAU76/J2000 helio. ecliptic osc. elements (au, days, deg., period=Julian yrs):
 
  EPOCH=  2457400.5 ! 2016-Jan-13.00 (TDB)         Residual RMS= .27924
   EC= .1376853592483588   QR= 1.955815485105278   TP= 2457771.2523425445
   OM= 221.0816606058015   W=  196.0382594605933   IN= 4.54781352519621
   A= 2.268099592279311    MA= 253.0219205479946   ADIST= 2.580383699453344
   PER= 3.41587            N= .288543233           ANGMOM= .025659989
   DAN= 2.56445            DDN= 1.96507            L= 57.072009
   B= -1.2552477           MOID= .96697998         TP= 2017-Jan-17.7523425445
 
Asteroid physical parameters (km, seconds, rotational period in hours):
   GM= n.a.                RAD= 2.8725             ROTPER= 2.936
   H= 13.2                 G= .150                 B-V= n.a.
                           ALBEDO= .338            STYP= n.a.

ASTEROID comments: 
1: soln ref.= JPL#57, OCC=0
2: source=ORB
*******************************************************************************


*******************************************************************************
Ephemeris / API_USER Mon Sep  4 11:20:56 2023 Pasadena, USA      / Horizons
*******************************************************************************
Target body name: 2961 Katsurahama (1982 XA)      {source: JPL#57}
Center body name: Solar System Barycenter (0)     {source: DE441}
Center-site name: BODY CENTER
*******************************************************************************
Start time      : A.D. 2023-Aug-12 00:00:00.0000 TDB
Stop  time      : A.D. 2023-Aug-13 00:00:00.0000 TDB
Step-size       : 2880 minutes
*******************************************************************************
Center geodetic : 0.0, 0.0, 0.0                   {E-lon(deg),Lat(deg),Alt(km)}
Center cylindric: 0.0, 0.0, 0.0                   {E-lon(deg),Dxy(km),Dz(km)}
Center radii    : (undefined)
Small perturbers: Yes                             {source: SB441-N16}
Output units    : KM-S
Calendar mode   : Mixed Julian/Gregorian
Output type     : GEOMETRIC cartesian states
Output format   : 2 (position and velocity)
Reference frame : Ecliptic of J2000.0
*******************************************************************************
Initial IAU76/J2000 heliocentric ecliptic osculating elements (au, days, deg.):
  EPOCH=  2457400.5 ! 2016-Jan-13.00 (TDB)         Residual RMS= .27924        
   EC= .1376853592483588   QR= 1.955815485105278   TP= 2457771.2523425445      
   OM= 221.0816606058015   W=  196.0382594605933   IN= 4.54781352519621        
  Equivalent ICRF heliocentric cartesian coordinates (au, au/d):
   X= 1.042597631638787E+00  Y=-2.045019225529464E+00  Z=-6.867635143452415E-01
  VX= 9.035321876157559E-03 VY= 5.372248199991355E-03 VZ= 2.457909882476870E-03
Asteroid physical parameters (km, seconds, rotational period in hours):        
   GM= n.a.                RAD= 2.8725             ROTPER= 2.936               
   H= 13.2                 G= .150                 B-V= n.a.                   
                           ALBEDO= .338            STYP= n.a.                  
*******************************************************************************
JDTDB
   X     Y     Z
   VX    VY    VZ
*******************************************************************************
$$SOE
2460168.500000000 = A.D. 2023-Aug-12 00:00:00.0000 TDB 
 X = 2.807652673861169E+08 Y = 1.017003202812808E+08 Z = 8.642365296503283E+06
 VX=-9.042518102201109E+00 VY= 2.020610984316640E+01 VZ=-1.686137021718709E+00
$$EOE
*******************************************************************************
 
TIME

  Barycentric Dynamical Time ("TDB" or T_eph) output was requested. This
continuous coordinate time is equivalent to the relativistic proper time
of a clock at rest in a reference frame co-moving with the solar system
barycenter but outside the system's gravity well. It is the independent
variable in the solar system relativistic equations of motion.

  TDB runs at a uniform rate of one SI second per second and is independent
of irregularities in Earth's rotation.
 
CALENDAR SYSTEM

  Mixed calendar mode was active such that calendar dates after AD 1582-Oct-15
(if any) are in the modern Gregorian system. Dates prior to 1582-Oct-5 (if any)
are in the Julian calendar system, which is automatically extended for dates
prior to its adoption on 45-Jan-1 BC.  The Julian calendar is useful for
matching historical dates. The Gregorian calendar more accurately corresponds
to the Earth's orbital motion and seasons. A "Gregorian-only" calendar mode is
available if such physical events are the primary interest.

REFERENCE FRAME AND COORDINATES

  Ecliptic at the standard reference epoch

    Reference epoch: J2000.0
    X-Y plane: adopted Earth orbital plane at the reference epoch
               Note: IAU76 obliquity of 84381.448 arcseconds wrt ICRF X-Y plane
    X-axis   : ICRF
    Z-axis   : perpendicular to the X-Y plane in the directional (+ or -) sense
               of Earth's north pole at the reference epoch.

  Symbol meaning:

    JDTDB    Julian Day Number, Barycentric Dynamical Time
      X      X-component of position vector (km)
      Y      Y-component of position vector (km)
      Z      Z-component of position vector (km)
      VX     X-component of velocity vector (km/sec)                           
      VY     Y-component of velocity vector (km/sec)                           
      VZ     Z-component of velocity vector (km/sec)                           

ABERRATIONS AND CORRECTIONS

 Geometric state vectors have NO corrections or aberrations applied.

Computations by ...

    Solar System Dynamics Group, Horizons On-Line Ephemeris System
    4800 Oak Grove Drive, Jet Propulsion Laboratory
    Pasadena, CA  91109   USA

    General site: https://ssd.jpl.nasa.gov/
    Mailing list: https://ssd.jpl.nasa.gov/email_list.html
    System news : https://ssd.jpl.nasa.gov/horizons/news.html
    User Guide  : https://ssd.jpl.nasa.gov/horizons/manual.html
    Connect     : browser        https://ssd.jpl.nasa.gov/horizons/app.html#/x
                  API            https://ssd-api.jpl.nasa.gov/doc/horizons.html
                  command-line   telnet ssd.jpl.nasa.gov 6775
                  e-mail/batch   https://ssd.jpl.nasa.gov/ftp/ssd/hrzn_batch.txt
                  scripts        https://ssd.jpl.nasa.gov/ftp/ssd/SCRIPTS
    Author      : Jon.D.Giorgini@jpl.nasa.gov
*******************************************************************************
